GLOBALSTAR M067 [+]     
1 32263U 07048A   23301.89249425 -.00000063  00000+0  25355-3 0  9999
2 32263  51.9748 343.6045 0001096 134.9429  35.7654 12.40633375735341
GLOBALSTAR M070 [+]     
1 32264U 07048B   23301.87566072 -.00000045  00000+0  33007-3 0  9991
2 32264  51.9727 148.0955 0000680 105.2760 359.6628 12.62281193738234
GLOBALSTAR M066 [+]     
1 32265U 07048C   23301.60529163 -.00000045  00000+0  32571-3 0  9998
2 32265  51.9699  10.9776 0000689  82.0488  65.9266 12.62274995740464
GLOBALSTAR M068 [-]     
1 32266U 07048D   23301.82503314 -.00000051  00000+0  29149-3 0  9997
2 32266  51.9893 323.1307 0000520 262.0922 269.0875 12.62769281742087
GLOBALSTAR M079 [+]     
1 37188U 10054A   23301.88165830 -.00000065  00000+0  21724-3 0  9995
2 37188  52.0017 158.0812 0001133  81.7603 292.2231 12.62269485601027
GLOBALSTAR M074 [+]     
1 37189U 10054B   23301.90795714 -.00000063  00000+0  22731-3 0  9996
2 37189  51.9995 157.4157 0000939  87.1073 286.8898 12.62271532601631
GLOBALSTAR M077 [+]     
1 37191U 10054D   23301.78328837 -.00000096  00000+0  41128-4 0  9991
2 37191  52.0049 114.5957 0000890 101.9949   3.7197 12.62267987601706
